NORAD_CAT_ID,OBJECT_NAME,OBJECT_TYPE,EPOCH,MEAN_MOTION,ECCENTRICITY,INCLINATION,RA_OF_ASC_NODE,ARG_OF_PERICENTER,MEAN_ANOMALY,BSTAR,MEAN_MOTION_DOT,MEAN_MOTION_DDOT,TLE_LINE0,TLE_LINE1,TLE_LINE2,SEMIMAJOR_AXIS,PERIOD,APOGEE,PERIGEE,DECAYED
54000.0,STARLINK-5088,PAYLOAD,2024-02-16 19:42:45,15.08831361,0.000174,53.2191,339.5799,117.186,242.9309,9.4965e-05,1.223e-05,0.0,0 STARLINK-5088,1 54000U 22125AN  24047.82136492  .00001223  00000-0  94965-4 0  9998,2 54000  53.2191 339.5799 0001740 117.1860 242.9309 15.08831361 76168,6917.907,95.438,540.976,538.568,0.0
54000.0,STARLINK-5088,PAYLOAD,2024-02-17 02:04:18,15.08841262,0.0001907,53.2188,338.3891,121.3087,238.8092,3.6316e-05,2.9e-06,0.0,0 STARLINK-5088,1 54000U 22125AN  24048.08631990  .00000290  00000-0  36316-4 0  9999,2 54000  53.2188 338.3891 0001907 121.3087 238.8092 15.08841262 76206,6917.877,95.437,541.061,538.422,0.0
54000.0,STARLINK-5088,PAYLOAD,2024-02-17 05:15:03,15.08846515,0.0001876,53.2185,337.7918,124.252,235.865,5.6836e-05,6.17e-06,0.0,0 STARLINK-5088,1 54000U 22125AN  24048.21879593  .00000617  00000-0  56836-4 0  9999,2 54000  53.2185 337.7918 0001876 124.2520 235.8650 15.08846515 76152,6917.86,95.437,541.023,538.428,0.0
54000.0,STARLINK-5088,PAYLOAD,2024-02-17 22:44:19,15.08838646,0.000191,53.2185,334.5191,129.2945,230.8217,1.0107e-05,-1.27e-06,0.0,0 STARLINK-5088,1 54000U 22125AN  24048.94744443 -.00000127  00000-0  10107-4 0  9992,2 54000  53.2185 334.5191 0001910 129.2945 230.8217 15.08838646 76267,6917.885,95.438,541.071,538.428,0.0
54000.0,STARLINK-5088,PAYLOAD,2024-02-18 11:27:23,15.08847955,0.0001411,53.2188,332.1423,98.4473,261.6679,7.9641e-05,9.8e-06,0.0,0 STARLINK-5088,1 54000U 22125AN  24049.47735714  .00000980  00000-0  79641-4 0  9996,2 54000  53.2188 332.1423 0001411  98.4473 261.6679 15.08847955 76415,6917.856,95.437,540.697,538.745,0.0
54000.0,STARLINK-5088,PAYLOAD,2024-02-18 22:35:06,15.08841921,0.0001483,53.2188,330.0617,101.8633,258.2525,4.26e-05,3.9e-06,0.0,0 STARLINK-5088,1 54000U 22125AN  24049.94104294  .00000390  00000-0  42600-4 0  9991,2 54000  53.2188 330.0617 0001483 101.8633 258.2525 15.08841921 76412,6917.875,95.437,540.765,538.714,0.0
54000.0,STARLINK-5088,PAYLOAD,2024-02-19 04:56:37,15.08855321,0.0001276,53.2186,328.8723,95.6315,264.4822,0.00014233,1.979e-05,0.0,0 STARLINK-5088,1 54000U 22125AN  24050.20598950  .00001979  00000-0  14233-3 0  9992,2 54000  53.2186 328.8723 0001276  95.6315 264.4822 15.08855321 76452,6917.834,95.437,540.581,538.816,0.0
54000.0,STARLINK-5088,PAYLOAD,2024-02-19 22:25:53,15.08834011,0.0001633,53.2186,325.6014,108.211,251.906,-7.9182e-05,-1.548e-05,0.0,0 STARLINK-5088,1 54000U 22125AN  24050.93465216 -.00001548  00000-0 -79182-4 0  9999,2 54000  53.2186 325.6014 0001633 108.2110 251.9060 15.08834011 76561,6917.899,95.438,540.893,538.634,0.0
54000.0,STARLINK-5088,PAYLOAD,2024-02-20 03:12:03,15.08839719,0.0001479,53.2187,324.7094,106.7725,253.3429,-4.3265e-05,-9.76e-06,0.0,0 STARLINK-5088,1 54000U 22125AN  24051.13336817 -.00000976  00000-0 -43265-4 0  9993,2 54000  53.2187 324.7094 0001479 106.7725 253.3429 15.08839719 76669,6917.881,95.438,540.769,538.723,0.0
54000.0,STARLINK-5088,PAYLOAD,2024-02-20 11:08:58,15.08839534,0.0001583,53.2197,323.2225,89.8632,270.2541,-9.3812e-06,-4.37e-06,0.0,0 STARLINK-5088,1 54000U 22125AN  24051.46456867 -.00000437  00000-0 -93812-5 0  9993,2 54000  53.2197 323.2225 0001583  89.8632 270.2541 15.08839534 76640,6917.882,95.438,540.842,538.652,0.0
54000.0,STARLINK-5088,PAYLOAD,2024-02-20 22:16:40,15.08837988,0.0001527,53.2193,321.1417,88.5969,271.5198,4.188e-05,3.79e-06,0.0,0 STARLINK-5088,1 54000U 22125AN  24051.92824888  .00000379  00000-0  41880-4 0  9996,2 54000  53.2193 321.1417 0001527  88.5969 271.5198 15.08837988 76714,6917.887,95.438,540.808,538.695,0.0
54000.0,STARLINK-5088,PAYLOAD,2024-02-21 10:59:45,15.08846136,0.0001357,53.2186,318.763,85.3995,274.7152,-1.9808e-05,-6.03e-06,0.0,0 STARLINK-5088,1 54000U 22125AN  24052.45816515 -.00000603  00000-0 -19808-4 0  9990,2 54000  53.2186 318.7630 0001357  85.3995 274.7152 15.08846136 76866,6917.862,95.437,540.665,538.788,0.0
54000.0,STARLINK-5088,PAYLOAD,2024-02-21 22:07:27,15.08838187,0.0001462,53.2191,316.6809,92.7164,267.3996,7.5636e-05,9.16e-06,0.0,0 STARLINK-5088,1 54000U 22125AN  24052.92184978  .00000916  00000-0  75636-4 0  9999,2 54000  53.2191 316.6809 0001462  92.7164 267.3996 15.08838187 76865,6917.886,95.438,540.762,538.74,0.0
54000.0,STARLINK-5088,PAYLOAD,2024-02-22 10:50:32,15.08841398,0.000133,53.2179,314.3024,97.1563,262.9581,7.0911e-05,8.41e-06,0.0,0 STARLINK-5088,1 54000U 22125AN  24053.45176769  .00000841  00000-0  70911-4 0  9995,2 54000  53.2179 314.3024 0001330  97.1563 262.9581 15.08841398 77018,6917.876,95.437,540.661,538.821,0.0
54000.0,STARLINK-5088,PAYLOAD,2024-02-22 21:58:14,15.0884232,0.0001465,53.2188,312.2176,96.041,264.0749,9.8091e-05,1.274e-05,0.0,0 STARLINK-5088,1 54000U 22125AN  24053.91544586  .00001274  00000-0  98091-4 0  9992,2 54000  53.2188 312.2176 0001465  96.0410 264.0749 15.08842320 77016,6917.873,95.437,540.752,538.725,0.0
54000.0,STARLINK-5088,PAYLOAD,2024-02-23 10:41:19,15.08845529,0.0001367,53.2182,309.8422,89.2679,270.847,7.2924e-05,8.73e-06,0.0,0 STARLINK-5088,1 54000U 22125AN  24054.44536342  .00000873  00000-0  72924-4 0  9993,2 54000  53.2182 309.8422 0001367  89.2679 270.8470 15.08845529 77096,6917.863,95.437,540.674,538.783,0.0
54000.0,STARLINK-5088,PAYLOAD,2024-02-23 20:13:38,15.08842848,0.000147,53.2181,308.0589,93.9831,266.1329,6.2777e-05,7.11e-06,0.0,0 STARLINK-5088,1 54000U 22125AN  24054.84280567  .00000711  00000-0  62777-4 0  9998,2 54000  53.2181 308.0589 0001470  93.9831 266.1329 15.08842848 77224,6917.872,95.437,540.754,538.72,0.0
54000.0,STARLINK-5088,PAYLOAD,2024-02-23 21:49:01,15.08843232,0.0001483,53.2182,307.7614,94.4918,265.6243,6.2634e-05,7.09e-06,0.0,0 STARLINK-5088,1 54000U 22125AN  24054.90904496  .00000709  00000-0  62634-4 0  9998,2 54000  53.2182 307.7614 0001483  94.4918 265.6243 15.08843232 77166,6917.871,95.437,540.761,538.71,0.0
54000.0,STARLINK-5088,PAYLOAD,2024-02-24 02:35:10,15.08850345,0.0001437,53.2183,306.8685,96.0127,264.1029,3.6517e-05,2.93e-06,0.0,0 STARLINK-5088,1 54000U 22125AN  24055.10776009  .00000293  00000-0  36517-4 0  9997,2 54000  53.2183 306.8685 0001437  96.0127 264.1029 15.08850345 77264,6917.849,95.437,540.708,538.72,0.0
54000.0,STARLINK-5088,PAYLOAD,2024-02-25 08:47:30,15.08842469,0.0001353,53.2176,301.2184,100.4016,259.7129,-5.7316e-05,-1.2e-05,0.0,0 STARLINK-5088,1 54000U 22125AN  24056.36632613 -.00001200  00000-0 -57316-4 0  9999,2 54000  53.2176 301.2184 0001353 100.4016 259.7129 15.08842469 77453,6917.873,95.437,540.674,538.802,0.0
54000.0,STARLINK-5088,PAYLOAD,2024-02-25 23:05:58,15.08847818,0.0001443,53.2185,298.545,100.4087,259.7068,9.4925e-05,1.223e-05,0.0,0 STARLINK-5088,1 54000U 22125AN  24056.96247964  .00001223  00000-0  94925-4 0  9996,2 54000  53.2185 298.5450 0001443 100.4087 259.7068 15.08847818 77472,6917.856,95.437,540.72,538.723,0.0
54000.0,STARLINK-5088,PAYLOAD,2024-02-26 19:46:00,15.08834626,0.0001767,53.2187,294.6824,118.2477,241.8694,-2.8823e-05,-7.47e-06,0.0,0 STARLINK-5088,1 54000U 22125AN  24057.82361584 -.00000747  00000-0 -28823-4 0  9993,2 54000  53.2187 294.6824 0001767 118.2477 241.8694 15.08834626 77677,6917.897,95.438,540.984,538.539,0.0
54000.0,STARLINK-5088,PAYLOAD,2024-02-26 21:21:23,15.08831625,0.0001753,53.2186,294.3863,116.397,243.7202,-6.8807e-05,-1.383e-05,0.0,0 STARLINK-5088,1 54000U 22125AN  24057.88985900 -.00001383  00000-0 -68807-4 0  9996,2 54000  53.2186 294.3863 0001753 116.3970 243.7202 15.08831625 77614,6917.906,95.438,540.984,538.558,0.0
54000.0,STARLINK-5088,PAYLOAD,2024-02-27 08:29:05,15.08828208,0.0001248,53.217,292.298,95.564,264.5495,9.1076e-06,-1.43e-06,0.0,0 STARLINK-5088,1 54000U 22125AN  24058.35353940 -.00000143  00000-0  91076-5 0  9999,2 54000  53.2170 292.2980 0001248  95.5640 264.5495 15.08828208 77680,6917.916,95.438,540.645,538.918,0.0
54000.0,STARLINK-5088,PAYLOAD,2024-02-27 22:47:33,15.08840118,0.0001275,53.2166,289.6211,86.7427,273.3711,-2.4266e-06,-3.26e-06,0.0,0 STARLINK-5088,1 54000U 22125AN  24058.94969563 -.00000326  00000-0 -24266-5 0  9999,2 54000  53.2166 289.6211 0001275  86.7427 273.3711 15.08840118 77770,6917.88,95.438,540.627,538.863,0.0
54000.0,STARLINK-5088,PAYLOAD,2024-02-28 00:22:56,15.08841926,0.0001363,53.2168,289.3241,97.827,262.2877,2.6591e-05,1.35e-06,0.0,0 STARLINK-5088,1 54000U 22125AN  24059.01593358  .00000135  00000-0  26591-4 0  9991,2 54000  53.2168 289.3241 0001363  97.8270 262.2877 15.08841926 77856,6917.875,95.437,540.682,538.797,0.0
54000.0,STARLINK-5088,PAYLOAD,2024-02-28 08:19:52,15.08844788,0.0001332,53.2169,287.8375,91.1069,269.0076,-1.8264e-05,-5.79e-06,0.0,0 STARLINK-5088,1 54000U 22125AN  24059.34713302 -.00000579  00000-0 -18264-4 0  9992,2 54000  53.2169 287.8375 0001332  91.1069 269.0076 15.08844788 77830,6917.866,95.437,540.652,538.809,0.0
54000.0,STARLINK-5088,PAYLOAD,2024-02-28 22:38:20,15.08840624,0.0001285,53.2165,285.1611,89.9783,270.1356,0.00015708,2.213e-05,0.0,0 STARLINK-5088,1 54000U 22125AN  24059.94329256  .00002213  00000-0  15708-3 0  9993,2 54000  53.2165 285.1611 0001285  89.9783 270.1356 15.08840624 77924,6917.878,95.438,540.632,538.855,0.0
54000.0,STARLINK-5088,PAYLOAD,2024-02-29 08:10:39,15.0883731,0.0001389,53.2168,283.3759,84.8148,275.3003,0.0001164,1.565e-05,0.0,0 STARLINK-5088,1 54000U 22125AN  24060.34073691  .00001565  00000-0  11640-3 0  9998,2 54000  53.2168 283.3759 0001389  84.8148 275.3003 15.08837310 78053,6917.889,95.438,540.715,538.793,0.0
54000.0,STARLINK-5088,PAYLOAD,2024-02-29 20:53:44,15.08842006,0.0001219,53.2157,280.9956,93.6336,266.4796,3.2403e-05,2.28e-06,0.0,0 STARLINK-5088,1 54000U 22125AN  24060.87065569  .00000228  00000-0  32403-4 0  9997,2 54000  53.2157 280.9956 0001219  93.6336 266.4796 15.08842006 78061,6917.874,95.437,540.583,538.896,0.0
